SL-16 R/B               
1 25407U 98045B   26093.50659288  .00000044  00000+0  46437-4 0  9992
2 25407  71.0090 129.3870 0008204 331.4959  28.5714 14.16193398430611
ISS (ZARYA)             
1 25544U 98067A   26093.48852458  .00011755  00000+0  22309-3 0  9991
2 25544  51.6327 309.7562 0006234 267.4493  92.5781 15.48743801560170
CZ-4B R/B               
1 25732U 99025C   26093.14674786  .00000087  00000+0  63118-4 0  9994
2 25732  98.6574 136.8433 0035973 274.6158 151.8480 14.18270419391634
OKEAN-O                 
1 25860U 99039A   26093.12045478  .00001062  00000+0  14596-3 0  9998
2 25860  97.9391 152.7574 0000913 101.6412 258.4902 14.80376988438009
SL-16 R/B               
1 25861U 99039B   26093.14490712  .00000928  00000+0  12426-3 0  9996
2 25861  97.9914 152.1987 0014970 172.9074 187.2353 14.81767105440486
DELTA 2 R/B             
1 25876U 99041E   26093.50161763  .00001149  00000+0  22400-3 0  9995
2 25876  51.7610 202.1621 0502618  61.5989 303.4659 14.11897417366530
HELIOS 1B               
1 25977U 99064A   26093.46431124  .00003414  00000+0  38012-3 0  9991
2 25977  98.1671 356.4334 0001539  44.7429 315.3910 14.87800583688941
TERRA                   
1 25994U 99068A   26093.51594093  .00000809  00000+0  17394-3 0  9990
2 25994  97.9541 145.9958 0003663 100.4236   6.9997 14.61043340398704
SL-16 R/B               
1 26070U 00006B   26093.31652882  .00000169  00000+0  10999-3 0  9992
2 26070  71.0037  46.0516 0015313 151.2034 208.9938 14.15830773352048
TITAN 4B R/B            
1 26474U 00047B   26093.47510391  .00006198  00000+0  38349-3 0  9997
2 26474  67.9904 330.8056 0040227   6.3474 353.8176 15.09797939396655
ENVISAT                 
1 27386U 02009A   26093.51484088  .00000213  00000+0  82863-4 0  9991
2 27386  98.3770  46.5275 0001198  82.2398  34.4728 14.39046197262745
IDEFIX & ARIANE 42P R/B 
1 27422U 02021B   26093.45713987  .00000468  00000+0  19409-3 0  9999
2 27422  98.5899  31.7717 0012838 112.1387 248.1160 14.31044184247564
