CCSDS_OMM_VERS = 2.0
CREATION_DATE  = 
ORIGINATOR     = 

OBJECT_NAME    = SL-16 R/B
OBJECT_ID      = 1998-045B
CENTER_NAME    = EARTH
REF_FRAME      = TEME
TIME_SYSTEM    = UTC
MEAN_ELEMENT_THEORY = SGP/SGP4

EPOCH          = 2026-04-03T12:09:29.624832
MEAN_MOTION    = 14.16193398
ECCENTRICITY   = .0008204
INCLINATION    = 71.0090
RA_OF_ASC_NODE = 129.3870
ARG_OF_PERICENTER = 331.4959
MEAN_ANOMALY   = 28.5714

EPHEMERIS_TYPE = 0
CLASSIFICATION_TYPE = U
NORAD_CAT_ID   = 25407
ELEMENT_SET_NO = 999
REV_AT_EPOCH   = 43061
BSTAR          = .46437E-4
MEAN_MOTION_DOT = .44E-6
MEAN_MOTION_DDOT = 0

CCSDS_OMM_VERS = 2.0
CREATION_DATE  = 
ORIGINATOR     = 

OBJECT_NAME    = ISS (ZARYA)
OBJECT_ID      = 1998-067A
CENTER_NAME    = EARTH
REF_FRAME      = TEME
TIME_SYSTEM    = UTC
MEAN_ELEMENT_THEORY = SGP/SGP4

EPOCH          = 2026-04-03T11:43:28.523712
MEAN_MOTION    = 15.48743801
ECCENTRICITY   = .0006234
INCLINATION    = 51.6327
RA_OF_ASC_NODE = 309.7562
ARG_OF_PERICENTER = 267.4493
MEAN_ANOMALY   = 92.5781

EPHEMERIS_TYPE = 0
CLASSIFICATION_TYPE = U
NORAD_CAT_ID   = 25544
ELEMENT_SET_NO = 999
REV_AT_EPOCH   = 56017
BSTAR          = .22309E-3
MEAN_MOTION_DOT = .11755E-3
MEAN_MOTION_DDOT = 0

CCSDS_OMM_VERS = 2.0
CREATION_DATE  = 
ORIGINATOR     = 

OBJECT_NAME    = CZ-4B R/B
OBJECT_ID      = 1999-025C
CENTER_NAME    = EARTH
REF_FRAME      = TEME
TIME_SYSTEM    = UTC
MEAN_ELEMENT_THEORY = SGP/SGP4

EPOCH          = 2026-04-03T03:31:19.015104
MEAN_MOTION    = 14.18270419
ECCENTRICITY   = .00359733
INCLINATION    = 98.6574
RA_OF_ASC_NODE = 136.8433
ARG_OF_PERICENTER = 274.6158
MEAN_ANOMALY   = 151.8480

EPHEMERIS_TYPE = 0
CLASSIFICATION_TYPE = U
NORAD_CAT_ID   = 25732
ELEMENT_SET_NO = 999
REV_AT_EPOCH   = 39163
BSTAR          = .6311773E-4
MEAN_MOTION_DOT = .87E-6
MEAN_MOTION_DDOT = 0

CCSDS_OMM_VERS = 2.0
CREATION_DATE  = 
ORIGINATOR     = 

OBJECT_NAME    = OKEAN-O
OBJECT_ID      = 1999-039A
CENTER_NAME    = EARTH
REF_FRAME      = TEME
TIME_SYSTEM    = UTC
MEAN_ELEMENT_THEORY = SGP/SGP4

EPOCH          = 2026-04-03T02:53:27.292992
MEAN_MOTION    = 14.80376988
ECCENTRICITY   = .00009135
INCLINATION    = 97.9391
RA_OF_ASC_NODE = 152.7574
ARG_OF_PERICENTER = 101.6412
MEAN_ANOMALY   = 258.4902

EPHEMERIS_TYPE = 0
CLASSIFICATION_TYPE = U
NORAD_CAT_ID   = 25860
ELEMENT_SET_NO = 999
REV_AT_EPOCH   = 43800
BSTAR          = .14595896E-3
MEAN_MOTION_DOT = .1062E-4
MEAN_MOTION_DDOT = 0

CCSDS_OMM_VERS = 2.0
CREATION_DATE  = 
ORIGINATOR     = 

OBJECT_NAME    = SL-16 R/B
OBJECT_ID      = 1999-039B
CENTER_NAME    = EARTH
REF_FRAME      = TEME
TIME_SYSTEM    = UTC
MEAN_ELEMENT_THEORY = SGP/SGP4

EPOCH          = 2026-04-03T03:28:39.975168
MEAN_MOTION    = 14.81767105
ECCENTRICITY   = .00149703
INCLINATION    = 97.9914
RA_OF_ASC_NODE = 152.1987
ARG_OF_PERICENTER = 172.9074
MEAN_ANOMALY   = 187.2353

EPHEMERIS_TYPE = 0
CLASSIFICATION_TYPE = U
NORAD_CAT_ID   = 25861
ELEMENT_SET_NO = 999
REV_AT_EPOCH   = 44048
BSTAR          = .12426302E-3
MEAN_MOTION_DOT = .928E-5
MEAN_MOTION_DDOT = 0

CCSDS_OMM_VERS = 2.0
CREATION_DATE  = 
ORIGINATOR     = 

OBJECT_NAME    = DELTA 2 R/B
OBJECT_ID      = 1999-041E
CENTER_NAME    = EARTH
REF_FRAME      = TEME
TIME_SYSTEM    = UTC
MEAN_ELEMENT_THEORY = SGP/SGP4

EPOCH          = 2026-04-03T12:02:19.763232
MEAN_MOTION    = 14.11897417
ECCENTRICITY   = .0502618
INCLINATION    = 51.7610
RA_OF_ASC_NODE = 202.1621
ARG_OF_PERICENTER = 61.5989
MEAN_ANOMALY   = 303.4659

EPHEMERIS_TYPE = 0
CLASSIFICATION_TYPE = U
NORAD_CAT_ID   = 25876
ELEMENT_SET_NO = 999
REV_AT_EPOCH   = 36653
BSTAR          = .224E-3
MEAN_MOTION_DOT = .1149E-4
MEAN_MOTION_DDOT = 0

CCSDS_OMM_VERS = 2.0
CREATION_DATE  = 
ORIGINATOR     = 

OBJECT_NAME    = HELIOS 1B
OBJECT_ID      = 1999-064A
CENTER_NAME    = EARTH
REF_FRAME      = TEME
TIME_SYSTEM    = UTC
MEAN_ELEMENT_THEORY = SGP/SGP4

EPOCH          = 2026-04-03T11:08:36.491136
MEAN_MOTION    = 14.87800583
ECCENTRICITY   = .0001539
INCLINATION    = 98.1671
RA_OF_ASC_NODE = 356.4334
ARG_OF_PERICENTER = 44.7429
MEAN_ANOMALY   = 315.3910

EPHEMERIS_TYPE = 0
CLASSIFICATION_TYPE = U
NORAD_CAT_ID   = 25977
ELEMENT_SET_NO = 999
REV_AT_EPOCH   = 68894
BSTAR          = .38012E-3
MEAN_MOTION_DOT = .3414E-4
MEAN_MOTION_DDOT = 0

CCSDS_OMM_VERS = 2.0
CREATION_DATE  = 
ORIGINATOR     = 

OBJECT_NAME    = TERRA
OBJECT_ID      = 1999-068A
CENTER_NAME    = EARTH
REF_FRAME      = TEME
TIME_SYSTEM    = UTC
MEAN_ELEMENT_THEORY = SGP/SGP4

EPOCH          = 2026-04-03T12:22:57.296352
MEAN_MOTION    = 14.61043340
ECCENTRICITY   = .0003663
INCLINATION    = 97.9541
RA_OF_ASC_NODE = 145.9958
ARG_OF_PERICENTER = 100.4236
MEAN_ANOMALY   = 6.9997

EPHEMERIS_TYPE = 0
CLASSIFICATION_TYPE = U
NORAD_CAT_ID   = 25994
ELEMENT_SET_NO = 999
REV_AT_EPOCH   = 39870
BSTAR          = .17394E-3
MEAN_MOTION_DOT = .809E-5
MEAN_MOTION_DDOT = 0

CCSDS_OMM_VERS = 2.0
CREATION_DATE  = 
ORIGINATOR     = 

OBJECT_NAME    = SL-16 R/B
OBJECT_ID      = 2000-006B
CENTER_NAME    = EARTH
REF_FRAME      = TEME
TIME_SYSTEM    = UTC
MEAN_ELEMENT_THEORY = SGP/SGP4

EPOCH          = 2026-04-03T07:35:48.090048
MEAN_MOTION    = 14.15830773
ECCENTRICITY   = .0015313
INCLINATION    = 71.0037
RA_OF_ASC_NODE = 46.0516
ARG_OF_PERICENTER = 151.2034
MEAN_ANOMALY   = 208.9938

EPHEMERIS_TYPE = 0
CLASSIFICATION_TYPE = U
NORAD_CAT_ID   = 26070
ELEMENT_SET_NO = 999
REV_AT_EPOCH   = 35204
BSTAR          = .10999E-3
MEAN_MOTION_DOT = .169E-5
MEAN_MOTION_DDOT = 0

CCSDS_OMM_VERS = 2.0
CREATION_DATE  = 
ORIGINATOR     = 

OBJECT_NAME    = TITAN 4B R/B
OBJECT_ID      = 2000-047B
CENTER_NAME    = EARTH
REF_FRAME      = TEME
TIME_SYSTEM    = UTC
MEAN_ELEMENT_THEORY = SGP/SGP4

EPOCH          = 2026-04-03T11:24:08.977824
MEAN_MOTION    = 15.09797939
ECCENTRICITY   = .0040227
INCLINATION    = 67.9904
RA_OF_ASC_NODE = 330.8056
ARG_OF_PERICENTER = 6.3474
MEAN_ANOMALY   = 353.8176

EPHEMERIS_TYPE = 0
CLASSIFICATION_TYPE = U
NORAD_CAT_ID   = 26474
ELEMENT_SET_NO = 999
REV_AT_EPOCH   = 39665
BSTAR          = .38349E-3
MEAN_MOTION_DOT = .6198E-4
MEAN_MOTION_DDOT = 0

CCSDS_OMM_VERS = 2.0
CREATION_DATE  = 
ORIGINATOR     = 

OBJECT_NAME    = ENVISAT
OBJECT_ID      = 2002-009A
CENTER_NAME    = EARTH
REF_FRAME      = TEME
TIME_SYSTEM    = UTC
MEAN_ELEMENT_THEORY = SGP/SGP4

EPOCH          = 2026-04-03T12:21:22.252032
MEAN_MOTION    = 14.39046197
ECCENTRICITY   = .0001198
INCLINATION    = 98.3770
RA_OF_ASC_NODE = 46.5275
ARG_OF_PERICENTER = 82.2398
MEAN_ANOMALY   = 34.4728

EPHEMERIS_TYPE = 0
CLASSIFICATION_TYPE = U
NORAD_CAT_ID   = 27386
ELEMENT_SET_NO = 999
REV_AT_EPOCH   = 26274
BSTAR          = .82863E-4
MEAN_MOTION_DOT = .213E-5
MEAN_MOTION_DDOT = 0

CCSDS_OMM_VERS = 2.0
CREATION_DATE  = 
ORIGINATOR     = 

OBJECT_NAME    = IDEFIX & ARIANE 42P R/B
OBJECT_ID      = 2002-021B
CENTER_NAME    = EARTH
REF_FRAME      = TEME
TIME_SYSTEM    = UTC
MEAN_ELEMENT_THEORY = SGP/SGP4

EPOCH          = 2026-04-03T10:58:16.884768
MEAN_MOTION    = 14.31044184
ECCENTRICITY   = .0012838
INCLINATION    = 98.5899
RA_OF_ASC_NODE = 31.7717
ARG_OF_PERICENTER = 112.1387
MEAN_ANOMALY   = 248.1160

EPHEMERIS_TYPE = 0
CLASSIFICATION_TYPE = U
NORAD_CAT_ID   = 27422
ELEMENT_SET_NO = 999
REV_AT_EPOCH   = 24756
BSTAR          = .19409E-3
MEAN_MOTION_DOT = .468E-5
MEAN_MOTION_DDOT = 0

